STARLINK-2364           
1 47904U 21021AW  26068.71332183 -.00002618  00000+0 -76354-4 0  9997
2 47904  53.1596 255.1801 0000919  95.2862 264.8244 15.30178556276419
MESON-1                 
1 59131U 24043AK  26068.90019075  .00008544  00000+0  29748-3 0  9998
2 59131  97.5469 205.2839 0009545 227.1432 132.9007 15.29893494111890
